OBJECT_NAME,OBJECT_ID,EPOCH,MEAN_MOTION,ECCENTRICITY,INCLINATION,RA_OF_ASC_NODE,ARG_OF_PERICENTER,MEAN_ANOMALY,EPHEMERIS_TYPE,CLASSIFICATION_TYPE,NORAD_CAT_ID,ELEMENT_SET_NO,REV_AT_EPOCH,BSTAR,MEAN_MOTION_DOT,MEAN_MOTION_DDOT
BEIDOU-2 G8 (C01),2019-027A,2026-06-05T21:02:53.801376,1.00275484,.00107,1.6292,74.4896,284.4447,355.5859,0,U,44231,999,2596,0,-.234E-5,0
COSMOS 2534 (758),2019-030A,2026-06-05T08:24:03.759264,2.13102504,.0013144,64.3678,193.0150,275.3348,142.7086,0,U,44299,999,5467,0,.7E-6,0
BEIDOU-3 IGSO-2 (C39),2019-035A,2026-06-05T15:35:45.205728,1.00270597,.0039796,55.2445,158.9631,216.1606,232.8049,0,U,44337,999,2555,0,-.68E-6,0
GPS BIII-2  (PRN 18),2019-056A,2026-06-02T10:44:11.779584,2.00569922,.006123,55.6403,331.7284,197.3681,346.8768,0,U,44506,999,4977,0,-.81E-6,0
BEIDOU-3 M24 (C46),2019-061A,2026-06-04T08:32:01.071744,1.86229272,.00082925,54.3958,183.1608,359.5616,0.4973,0,U,44542,999,4555,0,.7E-6,0
BEIDOU-3 M23 (C45),2019-061B,2026-06-05T03:50:47.412672,1.86227560,.00055253,54.3945,183.1018,339.5866,111.6566,0,U,44543,999,4557,0,.75E-6,0
BEIDOU-3 IGSO-3 (C40),2019-073A,2026-05-16T19:27:04.075776,1.00246251,.0042953,54.8566,281.2355,189.4588,170.3676,0,U,44709,999,2414,0,-.217E-5,0
BEIDOU-3 M22 (C44),2019-078A,2026-06-05T19:20:44.288160,1.86227665,.000663,53.9467,300.2280,49.5810,310.4674,0,U,44793,999,4443,0,-.55E-6,0
BEIDOU-3 M21 (C43),2019-078B,2026-06-05T09:49:02.413344,1.86228154,.0004554,53.9202,300.2034,47.7138,312.3144,0,U,44794,999,4443,0,-.56E-6,0
COSMOS 2544 (759),2019-088A,2026-06-05T07:08:53.172960,2.13102169,.0013693,65.5596,74.1271,259.9573,99.9093,0,U,44850,999,5046,0,-.6E-7,0
BEIDOU-3 M19 (C41),2019-090A,2026-06-05T08:32:00.875616,1.86231656,.0018154,56.5483,63.1823,297.5241,223.8735,0,U,44864,999,4401,0,-.39E-6,0
BEIDOU-3 M20 (C42),2019-090B,2026-06-05T18:59:07.473408,1.86231721,.0016134,56.5505,63.2026,310.9679,232.0002,0,U,44865,999,4400,0,-.38E-6,0
BEIDOU-3 G2 (C60),2020-017A,2026-06-05T21:51:03.347424,1.00274413,.0002653,2.8411,47.1771,24.9391,230.0173,0,U,45344,999,2314,0,-.129E-5,0
COSMOS 2545 (760),2020-018A,2026-06-03T03:31:05.351808,2.13102718,.0007797,64.3637,312.9119,231.7288,128.1886,0,U,45358,999,4836,0,-.45E-6,0
BEIDOU-3 G3 (C61),2020-040A,2026-06-05T20:53:09.733056,1.00273760,.0003052,2.4193,67.4250,336.7480,273.9884,0,U,45807,999,2195,0,-.341E-5,0
GPS BIII-3  (PRN 23),2020-041A,2026-06-05T12:26:40.515936,2.00559161,.0063444,56.6620,29.3967,204.6335,336.1006,0,U,45854,999,4380,0,-.7E-6,0
COSMOS 2547 (705K),2020-075A,2026-06-05T05:06:49.888224,2.13100365,.0009155,64.5987,192.8757,239.4130,120.5675,0,U,46805,999,4365,0,.69E-6,0
GPS BIII-4  (PRN 14),2020-078A,2026-06-05T19:17:06.647424,2.00564981,.0073048,53.9813,211.2406,206.8740,155.6187,0,U,46826,999,4128,0,.41E-6,0
GPS BIII-5  (PRN 11),2021-054A,2026-06-05T12:59:25.987200,2.00569989,.0025002,55.1805,332.9282,228.5933,130.6656,0,U,48859,999,3651,0,-.67E-6,0
GSAT0223 (GALILEO 27),2021-116A,2026-06-04T09:04:30.317952,1.70476295,.00011219,57.1645,342.0212,181.2918,357.3243,0,U,49809,999,2796,0,-.71E-6,0
GSAT0224 (GALILEO 28),2021-116B,2026-06-01T20:23:41.337600,1.70476406,.0000821,57.1667,342.0878,134.5472,44.9862,0,U,49810,999,2794,0,-.79E-6,0
COSMOS 2557 (706K),2022-075A,2026-06-02T13:29:06.303264,2.13102309,.00101406,64.3077,315.0006,276.1929,83.6791,0,U,52984,999,3040,0,-.5E-6,0
COSMOS 2559 (707K),2022-130A,2026-05-31T23:22:06.833280,2.13101759,.00122204,64.2818,315.1401,176.8765,183.1177,0,U,54031,999,2834,0,-.61E-6,0
COSMOS 2564 (761),2022-161A,2026-06-05T00:58:08.311008,2.13102077,.00120261,64.7406,193.1150,224.1220,135.8537,0,U,54377,999,2737,0,.69E-6,0
GPS BIII-6  (PRN 28),2023-009A,2026-06-05T17:46:00.319008,2.00572353,.0006184,55.1216,148.9690,317.6827,223.4166,0,U,55268,999,2501,0,.86E-6,0
BEIDOU-3 G4 (C62),2023-066A,2026-06-05T21:01:38.920224,1.00268094,.0004424,0.5005,328.5318,168.4492,212.7424,0,U,56564,999,1128,0,-.269E-5,0
