
# G11 (GNSS)
1 48859U 21054A   26156.54127300 -.00000067  00000+0  00000+0 0  9990
2 48859  55.1805 332.9282 0025002 228.5933 130.6656  2.00569989 36510

# G14 (GNSS)
1 46826U 20078A   26156.80354916  .00000041  00000+0  00000+0 0  9992
2 46826  53.9813 211.2406 0073048 206.8740 155.6187  2.00564981 41285

# G18 (GNSS)
1 44506U 19056A   26153.44735856 -.00000081  00000+0  00000+0 0  9997
2 44506  55.6403 331.7284 0061230 197.3681 346.8768  2.00569922 49773

# G23 (GNSS)
1 45854U 20041A   26156.51852449 -.00000070  00000+0  00000+0 0  9997
2 45854  56.6620  29.3967 0063444 204.6335 336.1006  2.00559161 43806

# G28 (GNSS)
1 55268U 23009A   26156.74028147  .00000086  00000+0  00000+0 0  9995
2 55268  55.1216 148.9690 0006184 317.6827 223.4166  2.00572353 25017

# C01 (GNSS)
1 44231U 19027A   26156.87701159 -.00000234  00000+0  00000+0 0  9999
2 44231   1.6292  74.4896 0010700 284.4447 355.5859  1.00275484 25968

# C39 (GNSS)
1 44337U 19035A   26156.64982877 -.00000068  00000+0  00000+0 0  9993
2 44337  55.2445 158.9631 0039796 216.1606 232.8049  1.00270597 25553

# C46 (GNSS)
1 44542U 19061A   26155.35556796  .00000070  00000+0  00000+0 0  9996
2 44542  54.3958 183.1608 0008292 359.5616   0.4973  1.86229272 45559

# C45 (GNSS)
1 44543U 19061B   26156.16027098  .00000075  00000+0  00000+0 0  9990
2 44543  54.3945 183.1018 0005525 339.5866 111.6566  1.86227560 45575

# C40 (GNSS)
1 44709U 19073A   26136.81046384 -.00000217  00000+0  00000+0 0  9995
2 44709  54.8566 281.2355 0042953 189.4588 170.3676  1.00246251 24144

# C44 (GNSS)
1 44793U 19078A   26156.80606815 -.00000055  00000+0  00000+0 0  9995
2 44793  53.9467 300.2280 0006630  49.5810 310.4674  1.86227665 44433

# C43 (GNSS)
1 44794U 19078B   26156.40905571 -.00000056  00000+0  00000+0 0  9994
2 44794  53.9202 300.2034 0004554  47.7138 312.3144  1.86228154 44431

# C41 (GNSS)
1 44864U 19090A   26156.35556569 -.00000039  00000+0  00000+0 0  9990
2 44864  56.5483  63.1823 0018154 297.5241 223.8735  1.86231656 44018

# C42 (GNSS)
1 44865U 19090B   26156.79105872 -.00000038  00000+0  00000+0 0  9995
2 44865  56.5505  63.2026 0016134 310.9679 232.0002  1.86231721 44002

# C60 (GNSS)
1 45344U 20017A   26156.91045541 -.00000129  00000+0  00000+0 0  9990
2 45344   2.8411  47.1771 0002653  24.9391 230.0173  1.00274413 23147

# C61 (GNSS)
1 45807U 20040A   26156.87025154 -.00000341  00000+0  00000+0 0  9999
2 45807   2.4193  67.4250 0003052 336.7480 273.9884  1.00273760 21954

# C62 (GNSS)
1 56564U 23066A   26156.87614491 -.00000269  00000+0  00000+0 0  9999
2 56564   0.5005 328.5318 0004424 168.4492 212.7424  1.00268094 11280

# E34 (GNSS)
1 49809U 21116A   26155.37812868 -.00000071  00000+0  00000+0 0  9990
2 49809  57.1645 342.0212 0001121 181.2918 357.3243  1.70476295 27961

# E10 (GNSS)
1 49810U 21116B   26152.84978400 -.00000079  00000+0  00000+0 0  9994
2 49810  57.1667 342.0878 0000821 134.5472  44.9862  1.70476406 27945

# R04 (GNSS)
1 44850U 19088A   26156.29783765 -.00000006  00000+0  00000+0 0  9999
2 44850  65.5596  74.1271 0013693 259.9573  99.9093  2.13102169 50462

# R11 (GNSS)
1 46805U 20075A   26156.21307741  .00000069  00000+0  00000+0 0  9995
2 46805  64.5987 192.8757 0009155 239.4130 120.5675  2.13100365 43650

# R12 (GNSS)
1 44299U 19030A   26156.35004351  .00000070  00000+0  00000+0 0  9997
2 44299  64.3678 193.0150 0013144 275.3348 142.7086  2.13102504 54676

# R16 (GNSS)
1 54377U 22161A   26156.04037397  .00000069  00000+0  00000+0 0  9994
2 54377  64.7406 193.1150 0012026 224.1220 135.8537  2.13102077 27373

# R19 (GNSS)
1 54031U 22130A   26151.97369020 -.00000061  00000+0  00000+0 0  9998
2 54031  64.2818 315.1401 0012220 176.8765 183.1177  2.13101759 28340

# R22 (GNSS)
1 52984U 22075A   26153.56187851 -.00000050  00000+0  00000+0 0  9996
2 52984  64.3077 315.0006 0010140 276.1929  83.6791  2.13102309 30406

# R24 (GNSS)
1 45358U 20018A   26154.14658972 -.00000045  00000+0  00000+0 0  9994
2 45358  64.3637 312.9119 0007797 231.7288 128.1886  2.13102718 48363
